STARLINK-30615          
1 58092U 23160T   26068.03727457  .00000837  00000+0  40863-4 0  9995
2 58092  43.0006  81.7657 0001376 261.3831  98.6865 15.26742290132842
FLOCK 4G-14             
1 62667U 25009BL  26068.75869712  .00011310  00000+0  42676-3 0  9993
2 62667  97.4064 151.1836 0003006 318.3639  41.7371 15.27197201 63711
