[{"OBJECT_NAME":"STARLINK-30615","OBJECT_ID":"2023-160T","EPOCH":"2026-03-09T00:53:40.522848","MEAN_MOTION":15.2674229,"ECCENTRICITY":0.00013765,"INCLINATION":43.0006,"RA_OF_ASC_NODE":81.7657,"ARG_OF_PERICENTER":261.3831,"MEAN_ANOMALY":98.6865,"EPHEMERIS_TYPE":0,"CLASSIFICATION_TYPE":"U","NORAD_CAT_ID":58092,"ELEMENT_SET_NO":999,"REV_AT_EPOCH":13284,"BSTAR":4.0862906e-5,"MEAN_MOTION_DOT":8.37e-6,"MEAN_MOTION_DDOT":0},{"OBJECT_NAME":"FLOCK 4G-14","OBJECT_ID":"2025-009BL","EPOCH":"2026-03-09T18:12:31.432032","MEAN_MOTION":15.27197201,"ECCENTRICITY":0.00030064,"INCLINATION":97.4064,"RA_OF_ASC_NODE":151.1836,"ARG_OF_PERICENTER":318.3639,"MEAN_ANOMALY":41.7371,"EPHEMERIS_TYPE":0,"CLASSIFICATION_TYPE":"U","NORAD_CAT_ID":62667,"ELEMENT_SET_NO":999,"REV_AT_EPOCH":6371,"BSTAR":0.00042675627,"MEAN_MOTION_DOT":0.0001131,"MEAN_MOTION_DDOT":0}]
